STARLINK-2423_new
1 17833C 21018AY  21326.15660929  .00004362  00000-0  29233-3 0  3260
2 17833  53.0547  93.0397 0001263  83.1186 336.4018 15.06384658    13
STARLINK-2423_old
1 27833C 21018AY  21325.13714315  .00001442  00000-0  96682-4 0  3254
2 27833  53.0547  97.6158 0001297  85.1290 202.7912 15.06378425    16
